QIANFAN-73              
1 63159U 25046A   25259.20898538  .00000119  00000+0  16500-3 0  9992
2 63159  88.9841 329.0671 0015209  25.7064 334.4840 13.50972735 35593
QIANFAN-74              
1 63160U 25046B   25259.19240646  .00000145  00000+0  20648-3 0  9990
2 63160  88.9841 328.9571 0002214 108.0118 252.1275 13.50978895 35657
QIANFAN-75              
1 63161U 25046C   25259.18019298  .00000149  00000+0  21139-3 0  9997
2 63161  88.9843 329.1907 0016394  28.2474 331.9562 13.50975590 35528
QIANFAN-76              
1 63162U 25046D   25259.25009485  .00000105  00000+0  14425-3 0  9995
2 63162  88.9842 329.1645 0013997  30.1190 330.0763 13.50970856 35545
QIANFAN-77              
1 63163U 25046E   25259.24336186  .00000324  00000+0  22637-3 0  9993
2 63163  88.9838 327.8908 0014129   3.2969 356.8298 13.96044387 36249
QIANFAN-78              
1 63164U 25046F   25259.21720485  .00000142  00000+0  20099-3 0  9998
2 63164  88.9841 329.0329 0015450  31.6018 328.6058 13.50974880 35614
QIANFAN-79              
1 63165U 25046G   25259.24584938  .00000136  00000+0  19196-3 0  9992
2 63165  88.9845 329.1340 0015070  30.0812 330.1202 13.50977234 35565
QIANFAN-80              
1 63166U 25046H   25259.18836147  .00000157  00000+0  22462-3 0  9991
2 63166  88.9842 328.8492 0014250  35.0151 325.1935 13.50977392 35716
